[{"OBJECT_NAME":"STARLINK-31604","OBJECT_ID":"2024-046P","EPOCH":"2026-03-09T12:22:28.293600","MEAN_MOTION":15.30187545,"ECCENTRICITY":0.00010947,"INCLINATION":53.1588,"RA_OF_ASC_NODE":156.0884,"ARG_OF_PERICENTER":82.9658,"MEAN_ANOMALY":277.1468,"EPHEMERIS_TYPE":0,"CLASSIFICATION_TYPE":"U","NORAD_CAT_ID":59214,"ELEMENT_SET_NO":999,"REV_AT_EPOCH":11301,"BSTAR":5.5737997e-5,"MEAN_MOTION_DOT":1.291e-5,"MEAN_MOTION_DDOT":0},{"OBJECT_NAME":"HERMES-3","OBJECT_ID":"2025-052BR","EPOCH":"2026-03-09T22:30:01.073952","MEAN_MOTION":15.30039786,"ECCENTRICITY":0.00079928,"INCLINATION":97.3987,"RA_OF_ASC_NODE":324.6131,"ARG_OF_PERICENTER":112.9583,"MEAN_ANOMALY":247.2502,"EPHEMERIS_TYPE":0,"CLASSIFICATION_TYPE":"U","NORAD_CAT_ID":63835,"ELEMENT_SET_NO":999,"REV_AT_EPOCH":5486,"BSTAR":0.0006995793,"MEAN_MOTION_DOT":0.00020316,"MEAN_MOTION_DDOT":0}]
